{
  "norad_id": 64429,
  "name": "STARLINK-34501",
  "history": [
    {
      "epoch": "2026-04-11T20:47:09.979008Z",
      "apogee_km": 573.8390919948442,
      "perigee_km": 570.251407917417,
      "latitude_deg": 5.201887526779589e-05,
      "longitude_deg": -160.93639398263642,
      "height_km": 574.408304779227,
      "semi_major_axis_km": 6950.18224995613,
      "eccentricity": 0.0002581,
      "inclination_deg": 70.0026,
      "raan_deg": 350.9346,
      "arg_perigee_deg": 272.0493,
      "mean_anomaly_deg": 88.0371,
      "mean_motion_rev_day": 14.98333441
    },
    {
      "epoch": "2026-04-13T00:01:27.250176Z",
      "apogee_km": 573.8261720295259,
      "perigee_km": 570.2796291270588,
      "latitude_deg": -6.494941460974716e-05,
      "longitude_deg": 146.51186947865676,
      "height_km": 574.4980881131607,
      "semi_major_axis_km": 6950.1899005782925,
      "eccentricity": 0.00025514,
      "inclination_deg": 70.0027,
      "raan_deg": 348.0735,
      "arg_perigee_deg": 269.4188,
      "mean_anomaly_deg": 90.6678,
      "mean_motion_rev_day": 14.98330967
    },
    {
      "epoch": "2026-04-14T20:53:12.903936Z",
      "apogee_km": 573.833091424056,
      "perigee_km": 570.2412414148503,
      "latitude_deg": 6.186199000008448e-06,
      "longitude_deg": -172.98387173848877,
      "height_km": 574.4649735201373,
      "semi_major_axis_km": 6950.174166419452,
      "eccentricity": 0.0002584,
      "inclination_deg": 70.0027,
      "raan_deg": 343.3604,
      "arg_perigee_deg": 269.9816,
      "mean_anomaly_deg": 90.1047,
      "mean_motion_rev_day": 14.98336055
    },
    {
      "epoch": "2026-04-15T17:42:57.754080Z",
      "apogee_km": 573.7616797363717,
      "perigee_km": 570.3157826088573,
      "latitude_deg": 3.038767349917497e-06,
      "longitude_deg": -128.46436857330568,
      "height_km": 574.4517927578316,
      "semi_major_axis_km": 6950.175731172614,
      "eccentricity": 0.0002479,
      "inclination_deg": 70.0021,
      "raan_deg": 341.1722,
      "arg_perigee_deg": 270.466,
      "mean_anomaly_deg": 89.6215,
      "mean_motion_rev_day": 14.98335549
    },
    {
      "epoch": "2026-04-16T01:43:38.030016Z",
      "apogee_km": 573.767122276563,
      "perigee_km": 570.3077424545972,
      "latitude_deg": 1.261531683031092e-05,
      "longitude_deg": 110.19721136264532,
      "height_km": 574.4430356685906,
      "semi_major_axis_km": 6950.174432365579,
      "eccentricity": 0.00024887,
      "inclination_deg": 70.002,
      "raan_deg": 340.3306,
      "arg_perigee_deg": 270.7113,
      "mean_anomaly_deg": 89.3761,
      "mean_motion_rev_day": 14.98335969
    },
    {
      "epoch": "2026-04-17T17:46:59.427840Z",
      "apogee_km": 573.7406324229751,
      "perigee_km": 570.3244850814572,
      "latitude_deg": 5.550826499524261e-05,
      "longitude_deg": -136.49536725955502,
      "height_km": 574.4632832570184,
      "semi_major_axis_km": 6950.169558752215,
      "eccentricity": 0.00024576,
      "inclination_deg": 70.0016,
      "raan_deg": 336.1222,
      "arg_perigee_deg": 269.8756,
      "mean_anomaly_deg": 90.2122,
      "mean_motion_rev_day": 14.98337545
    },
    {
      "epoch": "2026-04-18T21:01:16.211712Z",
      "apogee_km": 573.6399070990319,
      "perigee_km": 570.3969645726702,
      "latitude_deg": 1.9507799618145e-05,
      "longitude_deg": 170.9543624751169,
      "height_km": 574.4875998923999,
      "semi_major_axis_km": 6950.155435835851,
      "eccentricity": 0.0002333,
      "inclination_deg": 70.0017,
      "raan_deg": 333.2605,
      "arg_perigee_deg": 268.5065,
      "mean_anomaly_deg": 91.5827,
      "mean_motion_rev_day": 14.98342112
    },
    {
      "epoch": "2026-04-19T21:03:17.652096Z",
      "apogee_km": 573.7137408423896,
      "perigee_km": 570.3984987242529,
      "latitude_deg": 1.910091363205826e-05,
      "longitude_deg": 166.93582926404716,
      "height_km": 574.5196936054156,
      "semi_major_axis_km": 6950.193119783321,
      "eccentricity": 0.0002385,
      "inclination_deg": 70.001,
      "raan_deg": 330.735,
      "arg_perigee_deg": 268.7321,
      "mean_anomaly_deg": 91.3565,
      "mean_motion_rev_day": 14.98329926
    },
    {
      "epoch": "2026-04-20T13:04:38.399232Z",
      "apogee_km": 573.7296393794177,
      "perigee_km": 570.3774234822977,
      "latitude_deg": -6.878558168799058e-05,
      "longitude_deg": -75.74166811533567,
      "height_km": 574.5106095259634,
      "semi_major_axis_km": 6950.190531430857,
      "eccentricity": 0.00024116,
      "inclination_deg": 70.0011,
      "raan_deg": 329.052,
      "arg_perigee_deg": 268.9697,
      "mean_anomaly_deg": 91.1185,
      "mean_motion_rev_day": 14.98330763
    },
    {
      "epoch": "2026-04-21T21:07:19.953984Z",
      "apogee_km": 573.7564990133578,
      "perigee_km": 570.3383983015092,
      "latitude_deg": 6.77466094001676e-05,
      "longitude_deg": 158.90259688585732,
      "height_km": 574.5001722883404,
      "semi_major_axis_km": 6950.184448657434,
      "eccentricity": 0.0002459,
      "inclination_deg": 70.0012,
      "raan_deg": 325.6854,
      "arg_perigee_deg": 269.1371,
      "mean_anomaly_deg": 90.9507,
      "mean_motion_rev_day": 14.9833273
    },
    {
      "epoch": "2026-04-22T19:33:12.678048Z",
      "apogee_km": 573.6078736047693,
      "perigee_km": 570.4552771389799,
      "latitude_deg": -1.415872422756602e-05,
      "longitude_deg": 179.1549600863684,
      "height_km": 574.4405348295346,
      "semi_major_axis_km": 6950.168575371874,
      "eccentricity": 0.0002268,
      "inclination_deg": 70.0015,
      "raan_deg": 323.3287,
      "arg_perigee_deg": 270.6488,
      "mean_anomaly_deg": 89.4411,
      "mean_motion_rev_day": 14.98337863
    },
    {
      "epoch": "2026-04-22T21:09:20.684160Z",
      "apogee_km": 573.6619593266732,
      "perigee_km": 570.3981608752492,
      "latitude_deg": 3.148826354775397e-07,
      "longitude_deg": 154.88740536466125,
      "height_km": 574.4323202101807,
      "semi_major_axis_km": 6950.167060100961,
      "eccentricity": 0.0002348,
      "inclination_deg": 70.0017,
      "raan_deg": 323.1603,
      "arg_perigee_deg": 270.8654,
      "mean_anomaly_deg": 89.2236,
      "mean_motion_rev_day": 14.98338353
    },
    {
      "epoch": "2026-04-24T19:37:13.003104Z",
      "apogee_km": 573.7458001785753,
      "perigee_km": 570.3374325851028,
      "latitude_deg": 1.859604921455086e-05,
      "longitude_deg": 171.13508301276258,
      "height_km": 575.9395150720133,
      "semi_major_axis_km": 6950.178616381839,
      "eccentricity": 0.0002452,
      "inclination_deg": 70.0044,
      "raan_deg": 318.2842,
      "arg_perigee_deg": 210.2677,
      "mean_anomaly_deg": 149.8341,
      "mean_motion_rev_day": 14.98334616
    },
    {
      "epoch": "2026-04-25T19:39:15.003360Z",
      "apogee_km": 573.6511187451142,
      "perigee_km": 570.4943334875115,
      "latitude_deg": -2.434556935824182e-05,
      "longitude_deg": 167.1083961124049,
      "height_km": 574.6648156469544,
      "semi_major_axis_km": 6950.209726116313,
      "eccentricity": 0.0002271,
      "inclination_deg": 70.0015,
      "raan_deg": 315.7529,
      "arg_perigee_deg": 263.9894,
      "mean_anomaly_deg": 96.1006,
      "mean_motion_rev_day": 14.98324556
    },
    {
      "epoch": "2026-04-26T22:53:32.449920Z",
      "apogee_km": 573.6847198266332,
      "perigee_km": 570.4296658783524,
      "latitude_deg": 2.8102477965664785e-05,
      "longitude_deg": 114.55608932826203,
      "height_km": 574.6232661169381,
      "semi_major_axis_km": 6950.194192852493,
      "eccentricity": 0.00023417,
      "inclination_deg": 70.0012,
      "raan_deg": 312.8919,
      "arg_perigee_deg": 265.0934,
      "mean_anomaly_deg": 94.9958,
      "mean_motion_rev_day": 14.98329579
    },
    {
      "epoch": "2026-04-27T19:43:17.339808Z",
      "apogee_km": 573.7419595671781,
      "perigee_km": 570.348880509715,
      "latitude_deg": 4.226236418415079e-05,
      "longitude_deg": 159.07343173216154,
      "height_km": 574.3984723931276,
      "semi_major_axis_km": 6950.182420038446,
      "eccentricity": 0.0002441,
      "inclination_deg": 70.0008,
      "raan_deg": 310.7017,
      "arg_perigee_deg": 272.4956,
      "mean_anomaly_deg": 87.5924,
      "mean_motion_rev_day": 14.98333386
    },
    {
      "epoch": "2026-04-28T19:45:17.892000Z",
      "apogee_km": 573.839546685278,
      "perigee_km": 570.197665147778,
      "latitude_deg": 1.8526986668430906e-05,
      "longitude_deg": 155.06020284340357,
      "height_km": 574.4576723347687,
      "semi_major_axis_km": 6950.155605916528,
      "eccentricity": 0.000262,
      "inclination_deg": 70.0003,
      "raan_deg": 308.1778,
      "arg_perigee_deg": 269.6236,
      "mean_anomaly_deg": 90.4623,
      "mean_motion_rev_day": 14.98342057
    },
    {
      "epoch": "2026-04-29T19:47:18.646368Z",
      "apogee_km": 573.6120059653103,
      "perigee_km": 570.4455104458712,
      "latitude_deg": -6.319798464672352e-05,
      "longitude_deg": 151.04710786348843,
      "height_km": 574.632593573279,
      "semi_major_axis_km": 6950.1657582055905,
      "eccentricity": 0.0002278,
      "inclination_deg": 70.001,
      "raan_deg": 305.6549,
      "arg_perigee_deg": 263.58,
      "mean_anomaly_deg": 96.5099,
      "mean_motion_rev_day": 14.98338774
    },
    {
      "epoch": "2026-04-30T15:00:55.054080Z",
      "apogee_km": 573.5722174768534,
      "perigee_km": 570.4627183679049,
      "latitude_deg": -1.3786698761907856e-05,
      "longitude_deg": -140.16418909326669,
      "height_km": 574.7610690883139,
      "semi_major_axis_km": 6950.154467922379,
      "eccentricity": 0.0002237,
      "inclination_deg": 70.001,
      "raan_deg": 303.6349,
      "arg_perigee_deg": 258.2407,
      "mean_anomaly_deg": 101.8501,
      "mean_motion_rev_day": 14.98342425
    }
  ]
}